{"type": "FeatureCollection", "features": [ {"type": "Feature", "properties": {"norad_id": 66446, "name": "STARLINK-34986", "group": "last-30-days", "lat": 37.49697991042443, "lon": 125.13888519504239, "alt_km": 409.4478174430478, "timestamp": "2025-12-08T21:31:03.446370+00:00", "meta": {"OBJECT_NAME": "STARLINK-34986", "OBJECT_ID": "2025-259AA", "EPOCH": "2025-12-08T13:31:01.099488", "MEAN_MOTION": 15.50648703, "ECCENTRICITY": 0.00012145, "INCLINATION": 42.9987, "RA_OF_ASC_NODE": 71.6636, "ARG_OF_PERICENTER": 255.1355, "MEAN_ANOMALY": 104.9371, "EPHEMERIS_TYPE": 0, "CLASSIFICATION_TYPE": "U", "NORAD_CAT_ID": 66446, "ELEMENT_SET_NO": 999, "REV_AT_EPOCH": 552, "BSTAR": 0.0017593623, "MEAN_MOTION_DOT": 0.00104519, "MEAN_MOTION_DDOT": 0}, "tle": {"line1": "1 66446U 25259AA  25342.56320717  .00104519  00000+0  17594-2 0  9993", "line2": "2 66446  42.9987  71.6636 0001214 255.1355 104.9371 15.50648703  5526"}}, "geometry": {"type": "Point", "coordinates": [125.13888519504239, 37.49697991042443]}}, {"type": "Feature", "properties": {"norad_id": 66447, "name": "STARLINK-34851", "group": "last-30-days", "lat": 38.850888359524326, "lon": 129.51288932512713, "alt_km": 409.82507555590746, "timestamp": "2025-12-08T21:31:03.446380+00:00", "meta": {"OBJECT_NAME": "STARLINK-34851", "OBJECT_ID": "2025-259AB", "EPOCH": "2025-12-08T15:02:47.858784", "MEAN_MOTION": 15.50594628, "ECCENTRICITY": 0.00017685, "INCLINATION": 43.0013, "RA_OF_ASC_NODE": 71.2813, "ARG_OF_PERICENTER": 267.3813, "MEAN_ANOMALY": 92.6845, "EPHEMERIS_TYPE": 0, "CLASSIFICATION_TYPE": "U", "NORAD_CAT_ID": 66447, "ELEMENT_SET_NO": 999, "REV_AT_EPOCH": 542, "BSTAR": 0.00090929754, "MEAN_MOTION_DOT": 0.00053397, "MEAN_MOTION_DDOT": 0}, "tle": {"line1": "1 66447U 25259AB  25342.62694281  .00053397  00000+0  90930-3 0  9994", "line2": "2 66447  43.0013  71.2813 0001768 267.3813  92.6845 15.50594628  5424"}}, "geometry": {"type": "Point", "coordinates": [129.51288932512713, 38.850888359524326]}}, {"type": "Feature", "properties": {"norad_id": 66448, "name": "STARLINK-35355", "group": "last-30-days", "lat": 39.50263988317733, "lon": 131.9108895608452, "alt_km": 409.75137998980153, "timestamp": "2025-12-08T21:31:03.446390+00:00", "meta": {"OBJECT_NAME": "STARLINK-35355", "OBJECT_ID": "2025-259AC", "EPOCH": "2025-12-08T15:02:18.094848", "MEAN_MOTION": 15.50621652, "ECCENTRICITY": 0.00022829, "INCLINATION": 43.001, "RA_OF_ASC_NODE": 71.2787, "ARG_OF_PERICENTER": 277.6667, "MEAN_ANOMALY": 82.3933, "EPHEMERIS_TYPE": 0, "CLASSIFICATION_TYPE": "U", "NORAD_CAT_ID": 66448, "ELEMENT_SET_NO": 999, "REV_AT_EPOCH": 553, "BSTAR": 0.0021526826, "MEAN_MOTION_DOT": 0.00128234, "MEAN_MOTION_DDOT": 0}, "tle": {"line1": "1 66448U 25259AC  25342.62659832  .00128234  00000+0  21527-2 0  9996", "line2": "2 66448  43.0010  71.2787 0002282 277.6667  82.3933 15.50621652  5539"}}, "geometry": {"type": "Point", "coordinates": [131.9108895608452, 39.50263988317733]}}, {"type": "Feature", "properties": {"norad_id": 66449, "name": "STARLINK-34720", "group": "last-30-days", "lat": 40.08888242250665, "lon": 134.28346328611877, "alt_km": 409.19285803439834, "timestamp": "2025-12-08T21:31:03.446400+00:00", "meta": {"OBJECT_NAME": "STARLINK-34720", "OBJECT_ID": "2025-259AD", "EPOCH": "2025-12-08T15:01:48.650592", "MEAN_MOTION": 15.50622403, "ECCENTRICITY": 0.0001615, "INCLINATION": 43.0016, "RA_OF_ASC_NODE": 71.2754, "ARG_OF_PERICENTER": 283.7215, "MEAN_ANOMALY": 76.3465, "EPHEMERIS_TYPE": 0, "CLASSIFICATION_TYPE": "U", "NORAD_CAT_ID": 66449, "ELEMENT_SET_NO": 999, "REV_AT_EPOCH": 542, "BSTAR": 0.0025080734, "MEAN_MOTION_DOT": 0.00149877, "MEAN_MOTION_DDOT": 0}, "tle": {"line1": "1 66449U 25259AD  25342.62625753  .00149877  00000+0  25081-2 0  9997", "line2": "2 66449  43.0016  71.2754 0001615 283.7215  76.3465 15.50622403  5422"}}, "geometry": {"type": "Point", "coordinates": [134.28346328611877, 40.08888242250665]}}, {"type": "Feature", "properties": {"norad_id": 66450, "name": "STARLINK-35334", "group": "last-30-days", "lat": 40.61730191340961, "lon": 136.65851430348374, "alt_km": 409.9691002541613, "timestamp": "2025-12-08T21:31:03.446410+00:00", "meta": {"OBJECT_NAME": "STARLINK-35334", "OBJECT_ID": "2025-259AE", "EPOCH": "2025-12-08T13:28:33.568896", "MEAN_MOTION": 15.50594721, "ECCENTRICITY": 0.00026829, "INCLINATION": 43.0014, "RA_OF_ASC_NODE": 71.6481, "ARG_OF_PERICENTER": 275.1369, "MEAN_ANOMALY": 84.9185, "EPHEMERIS_TYPE": 0, "CLASSIFICATION_TYPE": "U", "NORAD_CAT_ID": 66450, "ELEMENT_SET_NO": 999, "REV_AT_EPOCH": 552, "BSTAR": 0.0017912563, "MEAN_MOTION_DOT": 0.00106246, "MEAN_MOTION_DDOT": 0}, "tle": {"line1": "1 66450U 25259AE  25342.56149964  .00106246  00000+0  17913-2 0  9995", "line2": "2 66450  43.0014  71.6481 0002682 275.1369  84.9185 15.50594721  5529"}}, "geometry": {"type": "Point", "coordinates": [136.65851430348374, 40.61730191340961]}}, {"type": "Feature", "properties": {"norad_id": 66454, "name": "VIASAT-3 F2", "group": "last-30-days", "lat": 3.478976424033823, "lon": -28.76567883697107, "alt_km": 22243.84078100462, "timestamp": "2025-12-08T21:31:03.446427+00:00", "meta": {"OBJECT_NAME": "VIASAT-3 F2", "OBJECT_ID": "2025-261A", "EPOCH": "2025-12-04T21:51:56.064384", "MEAN_MOTION": 2.28030055, "ECCENTRICITY": 0.23396731, "INCLINATION": 5.5696, "RA_OF_ASC_NODE": 293.0418, "ARG_OF_PERICENTER": 184.3884, "MEAN_ANOMALY": 199.1368, "EPHEMERIS_TYPE": 0, "CLASSIFICATION_TYPE": "U", "NORAD_CAT_ID": 66454, "ELEMENT_SET_NO": 999, "REV_AT_EPOCH": 47, "BSTAR": 0, "MEAN_MOTION_DOT": -6.1e-07, "MEAN_MOTION_DDOT": 0}, "tle": {"line1": "1 66454U 25261A   25338.91106556 -.00000061  00000+0  00000+0 0  9991", "line2": "2 66454   5.5696 293.0418 2339673 184.3884 199.1368  2.28030055   477"}}, "geometry": {"type": "Point", "coordinates": [-28.76567883697107, 3.478976424033823]}}, {"type": "Feature", "properties": {"norad_id": 66455, "name": "ATLAS 5 CENTAUR R/B", "group": "last-30-days", "lat": 3.644031129299638, "lon": -31.786703999058158, "alt_km": 22431.702896688512, "timestamp": "2025-12-08T21:31:03.446460+00:00", "meta": {"OBJECT_NAME": "ATLAS 5 CENTAUR R/B", "OBJECT_ID": "2025-261B", "EPOCH": "2025-12-08T10:35:24.563328", "MEAN_MOTION": 2.28259479, "ECCENTRICITY": 0.2329527, "INCLINATION": 6.1512, "RA_OF_ASC_NODE": 292.0465, "ARG_OF_PERICENTER": 185.62, "MEAN_ANOMALY": 212.524, "EPHEMERIS_TYPE": 0, "CLASSIFICATION_TYPE": "U", "NORAD_CAT_ID": 66455, "ELEMENT_SET_NO": 999, "REV_AT_EPOCH": 55, "BSTAR": 0, "MEAN_MOTION_DOT": -7.9e-07, "MEAN_MOTION_DDOT": 0}, "tle": {"line1": "1 66455U 25261B   25342.44125652 -.00000079  00000+0  00000+0 0  9992", "line2": "2 66455   6.1512 292.0465 2329527 185.6200 212.5240  2.28259479   557"}}, "geometry": {"type": "Point", "coordinates": [-31.786703999058158, 3.644031129299638]}}, {"type": "Feature", "properties": {"norad_id": 66456, "name": "STARLINK-35643", "group": "last-30-days", "lat": 31.265500235445522, "lon": 134.4167657798999, "alt_km": 439.5637078018808, "timestamp": "2025-12-08T21:31:03.446474+00:00", "meta": {"OBJECT_NAME": "STARLINK-35643", "OBJECT_ID": "2025-262A", "EPOCH": "2025-12-08T14:00:01.999872", "MEAN_MOTION": 15.40656393, "ECCENTRICITY": 0.00011492, "INCLINATION": 43.0002, "RA_OF_ASC_NODE": 95.5609, "ARG_OF_PERICENTER": 282.0829, "MEAN_ANOMALY": 188.2738, "EPHEMERIS_TYPE": 0, "CLASSIFICATION_TYPE": "U", "NORAD_CAT_ID": 66456, "ELEMENT_SET_NO": 999, "REV_AT_EPOCH": 497, "BSTAR": 0.0010836245, "MEAN_MOTION_DOT": 0.00045164, "MEAN_MOTION_DDOT": 0}, "tle": {"line1": "1 66456U 25262A   25342.58335648  .00045164  00000+0  10836-2 0  9991", "line2": "2 66456  43.0002  95.5609 0001149 282.0829 188.2738 15.40656393  4977"}}, "geometry": {"type": "Point", "coordinates": [134.4167657798999, 31.265500235445522]}}, {"type": "Feature", "properties": {"norad_id": 66457, "name": "STARLINK-35466", "group": "last-30-days", "lat": 41.08566466060452, "lon": 163.03094689735605, "alt_km": 438.3334788252605, "timestamp": "2025-12-08T21:31:03.446484+00:00", "meta": {"OBJECT_NAME": "STARLINK-35466", "OBJECT_ID": "2025-262B", "EPOCH": "2025-12-08T14:00:01.999872", "MEAN_MOTION": 15.4193787, "ECCENTRICITY": 0.00015014, "INCLINATION": 43.0004, "RA_OF_ASC_NODE": 95.5022, "ARG_OF_PERICENTER": 289.5138, "MEAN_ANOMALY": 205.0404, "EPHEMERIS_TYPE": 0, "CLASSIFICATION_TYPE": "U", "NORAD_CAT_ID": 66457, "ELEMENT_SET_NO": 999, "REV_AT_EPOCH": 497, "BSTAR": -0.043900536, "MEAN_MOTION_DOT": -0.01730423, "MEAN_MOTION_DDOT": 0}, "tle": {"line1": "1 66457U 25262B   25342.58335648 -.01730423  00000+0 -43901-1 0  9992", "line2": "2 66457  43.0004  95.5022 0001501 289.5138 205.0404 15.41937870  4977"}}, "geometry": {"type": "Point", "coordinates": [163.03094689735605, 41.08566466060452]}}, {"type": "Feature", "properties": {"norad_id": 66458, "name": "STARLINK-35684", "group": "last-30-days", "lat": 37.00976632309866, "lon": 147.71839919283968, "alt_km": 439.03192782594306, "timestamp": "2025-12-08T21:31:03.446495+00:00", "meta": {"OBJECT_NAME": "STARLINK-35684", "OBJECT_ID": "2025-262C", "EPOCH": "2025-12-08T14:00:01.999872", "MEAN_MOTION": 15.40619989, "ECCENTRICITY": 0.00012589, "INCLINATION": 43, "RA_OF_ASC_NODE": 95.5303, "ARG_OF_PERICENTER": 266.0893, "MEAN_ANOMALY": 216.7158, "EPHEMERIS_TYPE": 0, "CLASSIFICATION_TYPE": "U", "NORAD_CAT_ID": 66458, "ELEMENT_SET_NO": 999, "REV_AT_EPOCH": 497, "BSTAR": 0.0014931434, "MEAN_MOTION_DOT": 0.00062414, "MEAN_MOTION_DDOT": 0}, "tle": {"line1": "1 66458U 25262C   25342.58335648  .00062414  00000+0  14931-2 0  9990", "line2": "2 66458  43.0000  95.5303 0001258 266.0893 216.7158 15.40619989  4975"}}, "geometry": {"type": "Point", "coordinates": [147.71839919283968, 37.00976632309866]}}]}